SL-14 R/B               
1 16496U 86006B   26092.88265445  .00001429  00000+0  14915-3 0  9995
2 16496  82.5259 236.9632 0076193 191.4257 168.5235 14.86858662152805
COSMOS 1743             
1 16719U 86034A   26093.15257322  .00073922  00000+0  88193-3 0  9996
2 16719  82.5320  48.1164 0005447 157.7981 202.3513 15.60766385184060
SL-14 R/B               
1 16792U 86046B   26093.25703213  .00000849  00000+0  94770-4 0  9993
2 16792  82.4814  56.9639 0023987 143.6606 216.6245 14.85617016130051
SL-14 R/B               
1 16882U 86055B   26093.30945318  .00000770  00000+0  85905-4 0  9996
2 16882  82.5169 103.5264 0017400 249.0509 120.9023 14.85666789123025
AJISAI (EGS)            
1 16908U 86061A   26093.29750962 -.00000093  00000+0  31970-4 0  9991
2 16908  50.0120  17.6785 0011357 350.3733 115.2435 12.44515659471060
SL-14 R/B               
1 17567U 87024B   26093.21415099  .00000830  00000+0  91670-4 0  9995
2 17567  82.5262  69.7069 0018297 174.5915 185.5503 14.86158150 91779
COSMOS 1833             
1 17589U 87027A   26093.21199059 -.00000306  00000+0 -13808-3 0  9993
2 17589  70.9164 274.4745 0023021 177.9907 182.1311 14.13044847 13782
SL-16 R/B               
1 17590U 87027B   26093.11450479  .00000283  00000+0  16427-3 0  9992
2 17590  71.0023 225.0219 0002882  81.0448 279.1002 14.17167843 18803
SL-14 R/B               
1 17912U 87038B   26093.22170232  .00000817  00000+0  91772-4 0  9990
2 17912  82.4977 273.6901 0020758  84.1137 276.2444 14.85394239 82875
COSMOS 1844             
1 17973U 87041A   26093.15031009  .00000393  00000+0  22897-3 0  9991
2 17973  70.9016 342.5841 0031422 341.9957  18.0049 14.14561204  7040
SL-14 R/B               
1 18153U 87055B   26093.12687719  .00000639  00000+0  70841-4 0  9995
2 18153  82.4997 326.0021 0019244 294.7926  65.1288 14.85654580 73569
COSMOS 1867             
1 18187U 87060A   26093.10236532  .00000017  00000+0  43868-4 0  9998
2 18187  65.0100 238.3341 0014934 280.0267  79.9132 14.31507150 23439
SL-14 R/B               
1 18749U 88001B   26093.25865198  .00000751  00000+0  83889-4 0  9992
2 18749  82.5157 172.2598 0018782 153.0076 207.2122 14.85556212 45678
COSMOS 1933             
1 18958U 88020A   26093.24413621  .00008543  00000+0  41582-3 0  9994
2 18958  82.5136 226.6117 0005510 110.4039 249.7787 15.18232915 53955
SL-3 R/B                
1 19046U 88032B   26093.22118060  .00008916  00000+0  41076-3 0  9995
2 19046  97.5221  76.3952 0026902 145.1164 215.1841 15.20193514 55835
SL-16 R/B               
1 19120U 88039B   26093.21942946 -.00000050  00000+0 -10178-5 0  9996
2 19120  71.0174  16.6791 0023786 299.3313  60.5436 14.19620577961867
COSMOS 1953             
1 19210U 88050A   26093.17174970  .00012050  00000+0  42687-3 0  9997
2 19210  82.5064 133.6166 0011959  46.1477 314.0749 15.28918467 41521
