[{"OBJECT_NAME":"SL-14 R/B","OBJECT_ID":"1986-006B","EPOCH":"2026-04-02T21:11:01.344480","MEAN_MOTION":14.86858662,"ECCENTRICITY":0.0076193,"INCLINATION":82.5259,"RA_OF_ASC_NODE":236.9632,"ARG_OF_PERICENTER":191.4257,"MEAN_ANOMALY":168.5235,"EPHEMERIS_TYPE":0,"CLASSIFICATION_TYPE":"U","NORAD_CAT_ID":16496,"ELEMENT_SET_NO":999,"REV_AT_EPOCH":15280,"BSTAR":0.00014914705,"MEAN_MOTION_DOT":1.429e-5,"MEAN_MOTION_DDOT":0},{"OBJECT_NAME":"COSMOS 1743","OBJECT_ID":"1986-034A","EPOCH":"2026-04-03T03:39:42.326208","MEAN_MOTION":15.60766385,"ECCENTRICITY":0.00054473,"INCLINATION":82.532,"RA_OF_ASC_NODE":48.1164,"ARG_OF_PERICENTER":157.7981,"MEAN_ANOMALY":202.3513,"EPHEMERIS_TYPE":0,"CLASSIFICATION_TYPE":"U","NORAD_CAT_ID":16719,"ELEMENT_SET_NO":999,"REV_AT_EPOCH":18406,"BSTAR":0.00088193004,"MEAN_MOTION_DOT":0.00073922,"MEAN_MOTION_DDOT":0},{"OBJECT_NAME":"SL-14 R/B","OBJECT_ID":"1986-046B","EPOCH":"2026-04-03T06:10:07.576032","MEAN_MOTION":14.85617016,"ECCENTRICITY":0.00239877,"INCLINATION":82.4814,"RA_OF_ASC_NODE":56.9639,"ARG_OF_PERICENTER":143.6606,"MEAN_ANOMALY":216.6245,"EPHEMERIS_TYPE":0,"CLASSIFICATION_TYPE":"U","NORAD_CAT_ID":16792,"ELEMENT_SET_NO":999,"REV_AT_EPOCH":13005,"BSTAR":9.4769932e-5,"MEAN_MOTION_DOT":8.49e-6,"MEAN_MOTION_DDOT":0},{"OBJECT_NAME":"SL-14 R/B","OBJECT_ID":"1986-055B","EPOCH":"2026-04-03T07:25:36.754752","MEAN_MOTION":14.85666789,"ECCENTRICITY":0.00174004,"INCLINATION":82.5169,"RA_OF_ASC_NODE":103.5264,"ARG_OF_PERICENTER":249.0509,"MEAN_ANOMALY":120.9023,"EPHEMERIS_TYPE":0,"CLASSIFICATION_TYPE":"U","NORAD_CAT_ID":16882,"ELEMENT_SET_NO":999,"REV_AT_EPOCH":12302,"BSTAR":8.590538e-5,"MEAN_MOTION_DOT":7.7e-6,"MEAN_MOTION_DDOT":0},{"OBJECT_NAME":"AJISAI (EGS)","OBJECT_ID":"1986-061A","EPOCH":"2026-04-03T07:08:24.831168","MEAN_MOTION":12.44515659,"ECCENTRICITY":0.00113575,"INCLINATION":50.012,"RA_OF_ASC_NODE":17.6785,"ARG_OF_PERICENTER":350.3733,"MEAN_ANOMALY":115.2435,"EPHEMERIS_TYPE":0,"CLASSIFICATION_TYPE":"U","NORAD_CAT_ID":16908,"ELEMENT_SET_NO":999,"REV_AT_EPOCH":47106,"BSTAR":3.1970445e-5,"MEAN_MOTION_DOT":-9.3e-7,"MEAN_MOTION_DDOT":0},{"OBJECT_NAME":"SL-14 R/B","OBJECT_ID":"1987-024B","EPOCH":"2026-04-03T05:08:22.645536","MEAN_MOTION":14.8615815,"ECCENTRICITY":0.00182973,"INCLINATION":82.5262,"RA_OF_ASC_NODE":69.7069,"ARG_OF_PERICENTER":174.5915,"MEAN_ANOMALY":185.5503,"EPHEMERIS_TYPE":0,"CLASSIFICATION_TYPE":"U","NORAD_CAT_ID":17567,"ELEMENT_SET_NO":999,"REV_AT_EPOCH":9177,"BSTAR":9.167031e-5,"MEAN_MOTION_DOT":8.3e-6,"MEAN_MOTION_DDOT":0},{"OBJECT_NAME":"COSMOS 1833","OBJECT_ID":"1987-027A","EPOCH":"2026-04-03T05:05:15.986976","MEAN_MOTION":14.13044847,"ECCENTRICITY":0.00230216,"INCLINATION":70.9164,"RA_OF_ASC_NODE":274.4745,"ARG_OF_PERICENTER":177.9907,"MEAN_ANOMALY":182.1311,"EPHEMERIS_TYPE":0,"CLASSIFICATION_TYPE":"U","NORAD_CAT_ID":17589,"ELEMENT_SET_NO":999,"REV_AT_EPOCH":1378,"BSTAR":-0.00013807508,"MEAN_MOTION_DOT":-3.06e-6,"MEAN_MOTION_DDOT":0},{"OBJECT_NAME":"SL-16 R/B","OBJECT_ID":"1987-027B","EPOCH":"2026-04-03T02:44:53.213856","MEAN_MOTION":14.17167843,"ECCENTRICITY":0.00028825,"INCLINATION":71.0023,"RA_OF_ASC_NODE":225.0219,"ARG_OF_PERICENTER":81.0448,"MEAN_ANOMALY":279.1002,"EPHEMERIS_TYPE":0,"CLASSIFICATION_TYPE":"U","NORAD_CAT_ID":17590,"ELEMENT_SET_NO":999,"REV_AT_EPOCH":1880,"BSTAR":0.00016426852,"MEAN_MOTION_DOT":2.83e-6,"MEAN_MOTION_DDOT":0},{"OBJECT_NAME":"SL-14 R/B","OBJECT_ID":"1987-038B","EPOCH":"2026-04-03T05:19:15.080448","MEAN_MOTION":14.85394239,"ECCENTRICITY":0.00207581,"INCLINATION":82.4977,"RA_OF_ASC_NODE":273.6901,"ARG_OF_PERICENTER":84.1137,"MEAN_ANOMALY":276.2444,"EPHEMERIS_TYPE":0,"CLASSIFICATION_TYPE":"U","NORAD_CAT_ID":17912,"ELEMENT_SET_NO":999,"REV_AT_EPOCH":8287,"BSTAR":9.1771697e-5,"MEAN_MOTION_DOT":8.17e-6,"MEAN_MOTION_DDOT":0},{"OBJECT_NAME":"COSMOS 1844","OBJECT_ID":"1987-041A","EPOCH":"2026-04-03T03:36:26.791776","MEAN_MOTION":14.14561204,"ECCENTRICITY":0.0031422,"INCLINATION":70.9016,"RA_OF_ASC_NODE":342.5841,"ARG_OF_PERICENTER":341.9957,"MEAN_ANOMALY":18.0049,"EPHEMERIS_TYPE":0,"CLASSIFICATION_TYPE":"U","NORAD_CAT_ID":17973,"ELEMENT_SET_NO":999,"REV_AT_EPOCH":704,"BSTAR":0.00022897085,"MEAN_MOTION_DOT":3.93e-6,"MEAN_MOTION_DDOT":0},{"OBJECT_NAME":"SL-14 R/B","OBJECT_ID":"1987-055B","EPOCH":"2026-04-03T03:02:42.189216","MEAN_MOTION":14.8565458,"ECCENTRICITY":0.00192449,"INCLINATION":82.4997,"RA_OF_ASC_NODE":326.0021,"ARG_OF_PERICENTER":294.7926,"MEAN_ANOMALY":65.1288,"EPHEMERIS_TYPE":0,"CLASSIFICATION_TYPE":"U","NORAD_CAT_ID":18153,"ELEMENT_SET_NO":999,"REV_AT_EPOCH":7356,"BSTAR":7.0840646e-5,"MEAN_MOTION_DOT":6.39e-6,"MEAN_MOTION_DDOT":0},{"OBJECT_NAME":"COSMOS 1867","OBJECT_ID":"1987-060A","EPOCH":"2026-04-03T02:27:24.363648","MEAN_MOTION":14.3150715,"ECCENTRICITY":0.0014934,"INCLINATION":65.01,"RA_OF_ASC_NODE":238.3341,"ARG_OF_PERICENTER":280.0267,"MEAN_ANOMALY":79.9132,"EPHEMERIS_TYPE":0,"CLASSIFICATION_TYPE":"U","NORAD_CAT_ID":18187,"ELEMENT_SET_NO":999,"REV_AT_EPOCH":2343,"BSTAR":4.3867903e-5,"MEAN_MOTION_DOT":1.7e-7,"MEAN_MOTION_DDOT":0},{"OBJECT_NAME":"SL-14 R/B","OBJECT_ID":"1988-001B","EPOCH":"2026-04-03T06:12:27.531072","MEAN_MOTION":14.85556212,"ECCENTRICITY":0.00187829,"INCLINATION":82.5157,"RA_OF_ASC_NODE":172.2598,"ARG_OF_PERICENTER":153.0076,"MEAN_ANOMALY":207.2122,"EPHEMERIS_TYPE":0,"CLASSIFICATION_TYPE":"U","NORAD_CAT_ID":18749,"ELEMENT_SET_NO":999,"REV_AT_EPOCH":4567,"BSTAR":8.3888842e-5,"MEAN_MOTION_DOT":7.51e-6,"MEAN_MOTION_DDOT":0},{"OBJECT_NAME":"COSMOS 1933","OBJECT_ID":"1988-020A","EPOCH":"2026-04-03T05:51:33.368544","MEAN_MOTION":15.18232915,"ECCENTRICITY":0.00055101,"INCLINATION":82.5136,"RA_OF_ASC_NODE":226.6117,"ARG_OF_PERICENTER":110.4039,"MEAN_ANOMALY":249.7787,"EPHEMERIS_TYPE":0,"CLASSIFICATION_TYPE":"U","NORAD_CAT_ID":18958,"ELEMENT_SET_NO":999,"REV_AT_EPOCH":5395,"BSTAR":0.00041581551,"MEAN_MOTION_DOT":8.543e-5,"MEAN_MOTION_DDOT":0},{"OBJECT_NAME":"SL-3 R/B","OBJECT_ID":"1988-032B","EPOCH":"2026-04-03T05:18:30.003840","MEAN_MOTION":15.20193514,"ECCENTRICITY":0.0026902,"INCLINATION":97.5221,"RA_OF_ASC_NODE":76.3952,"ARG_OF_PERICENTER":145.1164,"MEAN_ANOMALY":215.1841,"EPHEMERIS_TYPE":0,"CLASSIFICATION_TYPE":"U","NORAD_CAT_ID":19046,"ELEMENT_SET_NO":999,"REV_AT_EPOCH":5583,"BSTAR":0.00041075536,"MEAN_MOTION_DOT":8.916e-5,"MEAN_MOTION_DDOT":0},{"OBJECT_NAME":"SL-16 R/B","OBJECT_ID":"1988-039B","EPOCH":"2026-04-03T05:15:58.705344","MEAN_MOTION":14.19620577,"ECCENTRICITY":0.00237864,"INCLINATION":71.0174,"RA_OF_ASC_NODE":16.6791,"ARG_OF_PERICENTER":299.3313,"MEAN_ANOMALY":60.5436,"EPHEMERIS_TYPE":0,"CLASSIFICATION_TYPE":"U","NORAD_CAT_ID":19120,"ELEMENT_SET_NO":999,"REV_AT_EPOCH":96186,"BSTAR":-1.017838e-6,"MEAN_MOTION_DOT":-5.0e-7,"MEAN_MOTION_DDOT":0},{"OBJECT_NAME":"COSMOS 1953","OBJECT_ID":"1988-050A","EPOCH":"2026-04-03T04:07:19.174080","MEAN_MOTION":15.28918467,"ECCENTRICITY":0.00119599,"INCLINATION":82.5064,"RA_OF_ASC_NODE":133.6166,"ARG_OF_PERICENTER":46.1477,"MEAN_ANOMALY":314.0749,"EPHEMERIS_TYPE":0,"CLASSIFICATION_TYPE":"U","NORAD_CAT_ID":19210,"ELEMENT_SET_NO":999,"REV_AT_EPOCH":4152,"BSTAR":0.00042687249,"MEAN_MOTION_DOT":0.0001205,"MEAN_MOTION_DDOT":0}]
